OBJECT_NAME,OBJECT_ID,EPOCH,MEAN_MOTION,ECCENTRICITY,INCLINATION,RA_OF_ASC_NODE,ARG_OF_PERICENTER,MEAN_ANOMALY,EPHEMERIS_TYPE,CLASSIFICATION_TYPE,NORAD_CAT_ID,ELEMENT_SET_NO,REV_AT_EPOCH,BSTAR,MEAN_MOTION_DOT,MEAN_MOTION_DDOT
IRIDIUM 156,2018-061H,2026-06-18T17:19:50.722176,14.34215835,.0002053,86.3959,56.0878,82.8447,277.2982,0,U,43576,999,41359,.64915E-4,.202E-5,0
IRIDIUM 164,2018-061J,2026-06-18T16:52:26.423040,14.34217784,.0002156,86.3959,56.1360,89.4861,270.6582,0,U,43577,999,41363,.82762E-4,.252E-5,0
IRIDIUM 159,2018-061K,2026-06-18T17:47:14.515008,14.34217665,.0002267,86.3959,56.0569,83.6454,276.5000,0,U,43578,999,41360,.6796E-5,.39E-6,0
IRIDIUM 180,2019-002A,2026-06-18T17:46:30.891648,14.34217630,.0002258,86.3971,352.9479,89.3903,270.7552,0,U,43922,999,38921,.50042E-4,.16E-5,0
IRIDIUM 176,2019-002B,2026-06-18T12:26:18.928032,14.72268563,.0002309,86.6091,352.9842,93.0519,267.0962,0,U,43923,999,39944,.90779E-4,.597E-5,0
IRIDIUM 168,2019-002C,2026-06-18T19:17:50.561088,14.34219595,.0002211,86.3974,352.9988,89.7821,270.3629,0,U,43924,999,38920,.52469E-4,.167E-5,0
IRIDIUM 173,2019-002D,2026-06-18T18:59:34.952064,14.34217104,.0002184,86.3969,352.8928,87.5316,272.6130,0,U,43925,999,38918,.34763E-4,.117E-5,0
IRIDIUM 169,2019-002E,2026-06-18T20:26:55.004064,14.38609637,.0001798,86.4223,24.4972,73.7428,286.3967,0,U,43926,999,39046,.61942E-4,.209E-5,0
IRIDIUM 172,2019-002F,2026-06-18T18:50:26.649024,14.34219106,.0002256,86.3970,352.9035,88.6310,271.5144,0,U,43927,999,38919,.4989E-4,.159E-5,0
IRIDIUM 175,2019-002G,2026-06-18T17:33:17.806176,14.43613460,.0002705,86.4514,289.8753,174.4783,185.6448,0,U,43928,999,39920,.72534E-4,.266E-5,0
IRIDIUM 171,2019-002H,2026-06-18T18:23:02.909760,14.34217318,.0001944,86.3975,353.2177,91.4736,268.6682,0,U,43929,999,38918,-.19564E-4,-.35E-6,0
IRIDIUM 170,2019-002J,2026-06-18T01:10:06.463488,14.72268543,.00023566,86.6091,353.1830,89.3305,270.8182,0,U,43930,999,39938,.92772602E-4,.61E-5,0
IRIDIUM 167,2019-002K,2026-06-18T11:32:02.872320,14.34217549,.0001779,86.3966,353.0532,92.7104,267.4296,0,U,43931,999,38914,-.26088E-5,.12E-6,0
IRIDIUM 181,2023-068S,2026-06-18T16:49:28.756992,14.43310294,.0002577,86.4500,56.1585,88.3874,271.7622,0,U,56726,999,16265,.69926E-4,.256E-5,0
IRIDIUM 177,2023-068T,2026-06-18T09:42:03.484800,14.80226116,.0002355,86.1965,328.2134,88.5696,271.5795,0,U,56727,999,16654,.63133E-4,.506E-5,0
IRIDIUM 174,2023-068U,2026-06-18T18:48:56.710080,14.72265744,.0002447,86.6098,353.0230,84.2537,275.8959,0,U,56728,999,16625,.92826E-4,.61E-5,0
IRIDIUM 178,2023-068V,2026-06-18T20:47:49.482816,14.80236167,.0002619,86.6536,24.6583,85.4861,274.6659,0,U,56729,999,16661,.9418E-4,.742E-5,0
IRIDIUM 179,2023-068W,2026-06-18T20:40:03.285696,14.80233445,.0002462,86.6773,33.6453,87.8173,272.3330,0,U,56730,999,16661,.90726E-4,.716E-5,0
